[{"OBJECT_NAME":"ORBITER SN3","OBJECT_ID":"2023-084AE","EPOCH":"2026-03-09T23:12:21.976128","MEAN_MOTION":15.32943891,"ECCENTRICITY":0.00075889,"INCLINATION":97.61,"RA_OF_ASC_NODE":206.6768,"ARG_OF_PERICENTER":331.7947,"MEAN_ANOMALY":28.2883,"EPHEMERIS_TYPE":0,"CLASSIFICATION_TYPE":"U","NORAD_CAT_ID":56960,"ELEMENT_SET_NO":999,"REV_AT_EPOCH":15228,"BSTAR":0.00032835432,"MEAN_MOTION_DOT":0.00010378,"MEAN_MOTION_DDOT":0},{"OBJECT_NAME":"STARLINK-34253","OBJECT_ID":"2025-139X","EPOCH":"2026-03-09T10:32:19.234464","MEAN_MOTION":15.30248133,"ECCENTRICITY":0.00022558,"INCLINATION":53.1589,"RA_OF_ASC_NODE":128.3519,"ARG_OF_PERICENTER":38.4064,"MEAN_ANOMALY":321.7097,"EPHEMERIS_TYPE":0,"CLASSIFICATION_TYPE":"U","NORAD_CAT_ID":64685,"ELEMENT_SET_NO":999,"REV_AT_EPOCH":4024,"BSTAR":0.0016814642,"MEAN_MOTION_DOT":0.00049852,"MEAN_MOTION_DDOT":0}]
